[{"OBJECT_NAME":"ONEWEB-0243","OBJECT_ID":"2021-045H","EPOCH":"2026-02-13T02:11:42.264960","MEAN_MOTION":13.15549683,"ECCENTRICITY":0.0001168,"INCLINATION":87.897,"RA_OF_ASC_NODE":284.0005,"ARG_OF_PERICENTER":86.4303,"MEAN_ANOMALY":273.6961,"EPHEMERIS_TYPE":0,"CLASSIFICATION_TYPE":"U","NORAD_CAT_ID":48774,"ELEMENT_SET_NO":999,"REV_AT_EPOCH":22804,"BSTAR":1.9309e-5,"MEAN_MOTION_DOT":2.0e-7,"MEAN_MOTION_DDOT":0},{"OBJECT_NAME":"ONEWEB-0222","OBJECT_ID":"2021-045J","EPOCH":"2026-02-13T03:37:16.013856","MEAN_MOTION":13.15547632,"ECCENTRICITY":0.0001517,"INCLINATION":87.8986,"RA_OF_ASC_NODE":283.9462,"ARG_OF_PERICENTER":90.3811,"MEAN_ANOMALY":269.7493,"EPHEMERIS_TYPE":0,"CLASSIFICATION_TYPE":"U","NORAD_CAT_ID":48775,"ELEMENT_SET_NO":999,"REV_AT_EPOCH":22809,"BSTAR":-0.0010333,"MEAN_MOTION_DOT":-3.76e-6,"MEAN_MOTION_DDOT":0},{"OBJECT_NAME":"ONEWEB-0244","OBJECT_ID":"2021-045K","EPOCH":"2026-02-13T04:14:55.696992","MEAN_MOTION":13.15549401,"ECCENTRICITY":0.0001397,"INCLINATION":87.8982,"RA_OF_ASC_NODE":283.9308,"ARG_OF_PERICENTER":86.695,"MEAN_ANOMALY":273.434,"EPHEMERIS_TYPE":0,"CLASSIFICATION_TYPE":"U","NORAD_CAT_ID":48776,"ELEMENT_SET_NO":999,"REV_AT_EPOCH":22866,"BSTAR":0.000382,"MEAN_MOTION_DOT":1.57e-6,"MEAN_MOTION_DDOT":0},{"OBJECT_NAME":"ONEWEB-0247","OBJECT_ID":"2021-045L","EPOCH":"2026-02-13T04:10:20.237376","MEAN_MOTION":13.15550874,"ECCENTRICITY":7.31e-5,"INCLINATION":87.8968,"RA_OF_ASC_NODE":283.978,"ARG_OF_PERICENTER":105.354,"MEAN_ANOMALY":254.7671,"EPHEMERIS_TYPE":0,"CLASSIFICATION_TYPE":"U","NORAD_CAT_ID":48777,"ELEMENT_SET_NO":999,"REV_AT_EPOCH":22810,"BSTAR":0.00028916,"MEAN_MOTION_DOT":1.22e-6,"MEAN_MOTION_DDOT":0},{"OBJECT_NAME":"ONEWEB-0245","OBJECT_ID":"2021-045M","EPOCH":"2026-02-13T02:13:59.736864","MEAN_MOTION":13.15549578,"ECCENTRICITY":0.0001538,"INCLINATION":87.8974,"RA_OF_ASC_NODE":283.9624,"ARG_OF_PERICENTER":89.3056,"MEAN_ANOMALY":270.8251,"EPHEMERIS_TYPE":0,"CLASSIFICATION_TYPE":"U","NORAD_CAT_ID":48778,"ELEMENT_SET_NO":999,"REV_AT_EPOCH":22806,"BSTAR":0.0001211,"MEAN_MOTION_DOT":5.8e-7,"MEAN_MOTION_DDOT":0},{"OBJECT_NAME":"ONEWEB-0229","OBJECT_ID":"2021-045N","EPOCH":"2026-02-13T02:07:08.804640","MEAN_MOTION":13.15549295,"ECCENTRICITY":0.0001412,"INCLINATION":87.898,"RA_OF_ASC_NODE":283.962,"ARG_OF_PERICENTER":81.4195,"MEAN_ANOMALY":278.7095,"EPHEMERIS_TYPE":0,"CLASSIFICATION_TYPE":"U","NORAD_CAT_ID":48779,"ELEMENT_SET_NO":999,"REV_AT_EPOCH":22809,"BSTAR":-4.7471e-5,"MEAN_MOTION_DOT":-5.0e-8,"MEAN_MOTION_DDOT":0},{"OBJECT_NAME":"ONEWEB-0228","OBJECT_ID":"2021-045P","EPOCH":"2026-02-13T02:55:15.788064","MEAN_MOTION":13.15549089,"ECCENTRICITY":0.0001453,"INCLINATION":87.8982,"RA_OF_ASC_NODE":283.9418,"ARG_OF_PERICENTER":88.6502,"MEAN_ANOMALY":271.4794,"EPHEMERIS_TYPE":0,"CLASSIFICATION_TYPE":"U","NORAD_CAT_ID":48780,"ELEMENT_SET_NO":999,"REV_AT_EPOCH":22801,"BSTAR":0.00029501,"MEAN_MOTION_DOT":1.24e-6,"MEAN_MOTION_DDOT":0},{"OBJECT_NAME":"ONEWEB-0232","OBJECT_ID":"2021-045Q","EPOCH":"2026-02-13T04:08:04.777728","MEAN_MOTION":13.15549928,"ECCENTRICITY":0.000151,"INCLINATION":87.8989,"RA_OF_ASC_NODE":283.9297,"ARG_OF_PERICENTER":84.75,"MEAN_ANOMALY":275.3802,"EPHEMERIS_TYPE":0,"CLASSIFICATION_TYPE":"U","NORAD_CAT_ID":48781,"ELEMENT_SET_NO":999,"REV_AT_EPOCH":22834,"BSTAR":0.0001885,"MEAN_MOTION_DOT":8.4e-7,"MEAN_MOTION_DDOT":0},{"OBJECT_NAME":"ONEWEB-0231","OBJECT_ID":"2021-045R","EPOCH":"2026-02-13T03:36:08.851680","MEAN_MOTION":13.15549462,"ECCENTRICITY":0.0001427,"INCLINATION":87.8972,"RA_OF_ASC_NODE":283.9652,"ARG_OF_PERICENTER":93.351,"MEAN_ANOMALY":266.7784,"EPHEMERIS_TYPE":0,"CLASSIFICATION_TYPE":"U","NORAD_CAT_ID":48782,"ELEMENT_SET_NO":999,"REV_AT_EPOCH":22803,"BSTAR":-0.00022957,"MEAN_MOTION_DOT":-7.4e-7,"MEAN_MOTION_DDOT":0},{"OBJECT_NAME":"ONEWEB-0234","OBJECT_ID":"2021-045S","EPOCH":"2026-02-13T02:41:11.647104","MEAN_MOTION":13.15548448,"ECCENTRICITY":0.0002345,"INCLINATION":87.8978,"RA_OF_ASC_NODE":283.9509,"ARG_OF_PERICENTER":94.4683,"MEAN_ANOMALY":265.6715,"EPHEMERIS_TYPE":0,"CLASSIFICATION_TYPE":"U","NORAD_CAT_ID":48783,"ELEMENT_SET_NO":999,"REV_AT_EPOCH":22816,"BSTAR":0.00055006,"MEAN_MOTION_DOT":2.2e-6,"MEAN_MOTION_DDOT":0},{"OBJECT_NAME":"ONEWEB-0238","OBJECT_ID":"2021-045T","EPOCH":"2026-02-13T02:41:34.334016","MEAN_MOTION":13.15548854,"ECCENTRICITY":0.0001944,"INCLINATION":87.8977,"RA_OF_ASC_NODE":283.9435,"ARG_OF_PERICENTER":90.5262,"MEAN_ANOMALY":269.6091,"EPHEMERIS_TYPE":0,"CLASSIFICATION_TYPE":"U","NORAD_CAT_ID":48784,"ELEMENT_SET_NO":999,"REV_AT_EPOCH":22806,"BSTAR":0.00050208,"MEAN_MOTION_DOT":2.02e-6,"MEAN_MOTION_DDOT":0},{"OBJECT_NAME":"ONEWEB-0240","OBJECT_ID":"2021-045U","EPOCH":"2026-02-13T03:12:10.221696","MEAN_MOTION":13.15546799,"ECCENTRICITY":0.000154,"INCLINATION":87.8984,"RA_OF_ASC_NODE":283.9386,"ARG_OF_PERICENTER":99.4105,"MEAN_ANOMALY":260.7199,"EPHEMERIS_TYPE":0,"CLASSIFICATION_TYPE":"U","NORAD_CAT_ID":48785,"ELEMENT_SET_NO":999,"REV_AT_EPOCH":22809,"BSTAR":-0.00010968,"MEAN_MOTION_DOT":-2.8e-7,"MEAN_MOTION_DDOT":0},{"OBJECT_NAME":"ONEWEB-0246","OBJECT_ID":"2021-045V","EPOCH":"2026-02-13T03:04:11.982144","MEAN_MOTION":13.15548424,"ECCENTRICITY":0.0001638,"INCLINATION":87.8976,"RA_OF_ASC_NODE":283.9492,"ARG_OF_PERICENTER":77.7304,"MEAN_ANOMALY":282.401,"EPHEMERIS_TYPE":0,"CLASSIFICATION_TYPE":"U","NORAD_CAT_ID":48786,"ELEMENT_SET_NO":999,"REV_AT_EPOCH":22796,"BSTAR":-0.00024695,"MEAN_MOTION_DOT":-8.0e-7,"MEAN_MOTION_DDOT":0},{"OBJECT_NAME":"ONEWEB-0210","OBJECT_ID":"2021-045W","EPOCH":"2026-02-13T04:17:11.532480","MEAN_MOTION":13.15548536,"ECCENTRICITY":6.13e-5,"INCLINATION":87.898,"RA_OF_ASC_NODE":283.9369,"ARG_OF_PERICENTER":74.793,"MEAN_ANOMALY":285.3268,"EPHEMERIS_TYPE":0,"CLASSIFICATION_TYPE":"U","NORAD_CAT_ID":48787,"ELEMENT_SET_NO":999,"REV_AT_EPOCH":22801,"BSTAR":0.00036676,"MEAN_MOTION_DOT":1.51e-6,"MEAN_MOTION_DDOT":0},{"OBJECT_NAME":"ONEWEB-0214","OBJECT_ID":"2021-045X","EPOCH":"2026-02-13T02:40:13.736640","MEAN_MOTION":13.15549232,"ECCENTRICITY":0.0001148,"INCLINATION":87.8985,"RA_OF_ASC_NODE":283.9453,"ARG_OF_PERICENTER":77.3975,"MEAN_ANOMALY":282.7283,"EPHEMERIS_TYPE":0,"CLASSIFICATION_TYPE":"U","NORAD_CAT_ID":48788,"ELEMENT_SET_NO":999,"REV_AT_EPOCH":22797,"BSTAR":0.00042727,"MEAN_MOTION_DOT":1.74e-6,"MEAN_MOTION_DDOT":0},{"OBJECT_NAME":"ONEWEB-0221","OBJECT_ID":"2021-045Y","EPOCH":"2026-02-13T02:50:30.306912","MEAN_MOTION":13.15549222,"ECCENTRICITY":0.0001396,"INCLINATION":87.8978,"RA_OF_ASC_NODE":283.955,"ARG_OF_PERICENTER":91.7736,"MEAN_ANOMALY":268.3554,"EPHEMERIS_TYPE":0,"CLASSIFICATION_TYPE":"U","NORAD_CAT_ID":48789,"ELEMENT_SET_NO":999,"REV_AT_EPOCH":22806,"BSTAR":0.00066381,"MEAN_MOTION_DOT":2.63e-6,"MEAN_MOTION_DDOT":0},{"OBJECT_NAME":"ONEWEB-0213","OBJECT_ID":"2021-045Z","EPOCH":"2026-02-13T02:34:30.967968","MEAN_MOTION":13.15550684,"ECCENTRICITY":0.0001224,"INCLINATION":87.8979,"RA_OF_ASC_NODE":283.9607,"ARG_OF_PERICENTER":89.6805,"MEAN_ANOMALY":270.4465,"EPHEMERIS_TYPE":0,"CLASSIFICATION_TYPE":"U","NORAD_CAT_ID":48790,"ELEMENT_SET_NO":999,"REV_AT_EPOCH":22812,"BSTAR":0.00057383,"MEAN_MOTION_DOT":2.29e-6,"MEAN_MOTION_DDOT":0}]
