ONEWEB-0243             
1 48774U 21045H   26044.09146140  .00000020  00000+0  19309-4 0  9990
2 48774  87.8970 284.0005 0001168  86.4303 273.6961 13.15549683228045
ONEWEB-0222             
1 48775U 21045J   26044.15087979 -.00000376  00000+0 -10333-2 0  9994
2 48775  87.8986 283.9462 0001517  90.3811 269.7493 13.15547632228097
ONEWEB-0244             
1 48776U 21045K   26044.17703353  .00000157  00000+0  38200-3 0  9997
2 48776  87.8982 283.9308 0001397  86.6950 273.4340 13.15549401228663
ONEWEB-0247             
1 48777U 21045L   26044.17384534  .00000122  00000+0  28916-3 0  9999
2 48777  87.8968 283.9780 0000731 105.3540 254.7671 13.15550874228101
ONEWEB-0245             
1 48778U 21045M   26044.09305251  .00000058  00000+0  12110-3 0  9997
2 48778  87.8974 283.9624 0001538  89.3056 270.8251 13.15549578228062
ONEWEB-0229             
1 48779U 21045N   26044.08829635 -.00000005  00000+0 -47471-4 0  9997
2 48779  87.8980 283.9620 0001412  81.4195 278.7095 13.15549295228096
ONEWEB-0228             
1 48780U 21045P   26044.12171051  .00000124  00000+0  29501-3 0  9999
2 48780  87.8982 283.9418 0001453  88.6502 271.4794 13.15549089228010
ONEWEB-0232             
1 48781U 21045Q   26044.17227752  .00000084  00000+0  18850-3 0  9995
2 48781  87.8989 283.9297 0001510  84.7500 275.3802 13.15549928228343
ONEWEB-0231             
1 48782U 21045R   26044.15010245 -.00000074  00000+0 -22957-3 0  9995
2 48782  87.8972 283.9652 0001427  93.3510 266.7784 13.15549462228037
ONEWEB-0234             
1 48783U 21045S   26044.11194036  .00000220  00000+0  55006-3 0  9995
2 48783  87.8978 283.9509 0002345  94.4683 265.6715 13.15548448228167
ONEWEB-0238             
1 48784U 21045T   26044.11220294  .00000202  00000+0  50208-3 0  9991
2 48784  87.8977 283.9435 0001944  90.5262 269.6091 13.15548854228060
ONEWEB-0240             
1 48785U 21045U   26044.13345164 -.00000028  00000+0 -10968-3 0  9995
2 48785  87.8984 283.9386 0001540  99.4105 260.7199 13.15546799228090
ONEWEB-0246             
1 48786U 21045V   26044.12791646 -.00000080  00000+0 -24695-3 0  9995
2 48786  87.8976 283.9492 0001638  77.7304 282.4010 13.15548424227963
ONEWEB-0210             
1 48787U 21045W   26044.17860570  .00000151  00000+0  36676-3 0  9993
2 48787  87.8980 283.9369 0000613  74.7930 285.3268 13.15548536228014
ONEWEB-0214             
1 48788U 21045X   26044.11127010  .00000174  00000+0  42727-3 0  9992
2 48788  87.8985 283.9453 0001148  77.3975 282.7283 13.15549232227972
ONEWEB-0221             
1 48789U 21045Y   26044.11840633  .00000263  00000+0  66381-3 0  9997
2 48789  87.8978 283.9550 0001396  91.7736 268.3554 13.15549222228064
ONEWEB-0213             
1 48790U 21045Z   26044.10730287  .00000229  00000+0  57383-3 0  9995
2 48790  87.8979 283.9607 0001224  89.6805 270.4465 13.15550684228129
